{
  "type": "FeatureCollection",
  "features": [
    {
      "type": "Feature",
      "properties": {
        "norad_id": 30931,
        "name": "FENGYUN 1C DEB",
        "group": "fengyun-1c-debris",
        "lat": -53.07076618222019,
        "lon": -136.49748249017225,
        "alt_km": 943.1760912122445,
        "timestamp": "2025-12-24T07:45:06.479313+00:00",
        "meta_object_name": "FENGYUN 1C DEB",
        "meta_object_id": "1999-025AZV",
        "meta_epoch": "2025-12-23T22:54:53.984736",
        "meta_mean_motion": 14.01532532,
        "meta_eccentricity": 0.00927262,
        "meta_inclination": 99.1706,
        "meta_ra_of_asc_node": 55.5435,
        "meta_arg_of_pericenter": 10.5137,
        "meta_mean_anomaly": 167.4856,
        "meta_ephemeris_type": 0,
        "meta_classification_type": "U",
        "meta_norad_cat_id": 30931,
        "meta_element_set_no": 999,
        "meta_rev_at_epoch": 96082,
        "meta_bstar": 0.00056333385,
        "meta_mean_motion_dot": 8.39e-06,
        "meta_mean_motion_ddot": 0,
        "tle_line1": "1 30931U 99025AZV 25357.95479149  .00000839  00000+0  56333-3 0  9993",
        "tle_line2": "2 30931  99.1706  55.5435 0092726  10.5137 167.4856 14.01532532960828"
      },
      "geometry": {
        "type": "Point",
        "coordinates": [
          -136.49748249017225,
          -53.07076618222019
        ]
      }
    },
    {
      "type": "Feature",
      "properties": {
        "norad_id": 30932,
        "name": "FENGYUN 1C DEB",
        "group": "fengyun-1c-debris",
        "lat": 40.31087602111003,
        "lon": 119.0821779484641,
        "alt_km": 820.085291145866,
        "timestamp": "2025-12-24T07:45:06.479323+00:00",
        "meta_object_name": "FENGYUN 1C DEB",
        "meta_object_id": "1999-025AZW",
        "meta_epoch": "2025-12-21T06:43:56.374176",
        "meta_mean_motion": 14.26904015,
        "meta_eccentricity": 0.00571492,
        "meta_inclination": 98.9092,
        "meta_ra_of_asc_node": 288.3376,
        "meta_arg_of_pericenter": 269.3371,
        "meta_mean_anomaly": 90.126,
        "meta_ephemeris_type": 0,
        "meta_classification_type": "U",
        "meta_norad_cat_id": 30932,
        "meta_element_set_no": 999,
        "meta_rev_at_epoch": 96516,
        "meta_bstar": 0.0018186282,
        "meta_mean_motion_dot": 4.449e-05,
        "meta_mean_motion_ddot": 0,
        "tle_line1": "1 30932U 99025AZW 25355.28051359  .00004449  00000+0  18186-2 0  9991",
        "tle_line2": "2 30932  98.9092 288.3376 0057149 269.3371  90.1260 14.26904015965167"
      },
      "geometry": {
        "type": "Point",
        "coordinates": [
          119.0821779484641,
          40.31087602111003
        ]
      }
    },
    {
      "type": "Feature",
      "properties": {
        "norad_id": 30933,
        "name": "FENGYUN 1C DEB",
        "group": "fengyun-1c-debris",
        "lat": 79.68105955780446,
        "lon": -79.66720900483023,
        "alt_km": 810.8605219031197,
        "timestamp": "2025-12-24T07:45:06.479335+00:00",
        "meta_object_name": "FENGYUN 1C DEB",
        "meta_object_id": "1999-025AZX",
        "meta_epoch": "2025-12-23T11:53:06.221760",
        "meta_mean_motion": 14.36772537,
        "meta_eccentricity": 0.00755723,
        "meta_inclination": 99.0479,
        "meta_ra_of_asc_node": 340.5286,
        "meta_arg_of_pericenter": 291.73,
        "meta_mean_anomaly": 193.7425,
        "meta_ephemeris_type": 0,
        "meta_classification_type": "U",
        "meta_norad_cat_id": 30933,
        "meta_element_set_no": 999,
        "meta_rev_at_epoch": 96026,
        "meta_bstar": 0.0047574894,
        "meta_mean_motion_dot": 0.00014487,
        "meta_mean_motion_ddot": 0,
        "tle_line1": "1 30933U 99025AZX 25357.49521090  .00014487  00000+0  47575-2 0  9998",
        "tle_line2": "2 30933  99.0479 340.5286 0075572 291.7300 193.7425 14.36772537960263"
      },
      "geometry": {
        "type": "Point",
        "coordinates": [
          -79.66720900483023,
          79.68105955780446
        ]
      }
    },
    {
      "type": "Feature",
      "properties": {
        "norad_id": 30934,
        "name": "FENGYUN 1C DEB",
        "group": "fengyun-1c-debris",
        "lat": -59.07796790371131,
        "lon": 38.97601405281338,
        "alt_km": 1343.1285841905483,
        "timestamp": "2025-12-24T07:45:06.479345+00:00",
        "meta_object_name": "FENGYUN 1C DEB",
        "meta_object_id": "1999-025AZY",
        "meta_epoch": "2025-12-23T07:23:49.593696",
        "meta_mean_motion": 13.46780488,
        "meta_eccentricity": 0.03412439,
        "meta_inclination": 98.7654,
        "meta_ra_of_asc_node": 233.0111,
        "meta_arg_of_pericenter": 54.6184,
        "meta_mean_anomaly": 308.6333,
        "meta_ephemeris_type": 0,
        "meta_classification_type": "U",
        "meta_norad_cat_id": 30934,
        "meta_element_set_no": 999,
        "meta_rev_at_epoch": 91850,
        "meta_bstar": 0.0021033269,
        "meta_mean_motion_dot": 1.779e-05,
        "meta_mean_motion_ddot": 0,
        "tle_line1": "1 30934U 99025AZY 25357.30821289  .00001779  00000+0  21033-2 0  9993",
        "tle_line2": "2 30934  98.7654 233.0111 0341243  54.6184 308.6333 13.46780488918504"
      },
      "geometry": {
        "type": "Point",
        "coordinates": [
          38.97601405281338,
          -59.07796790371131
        ]
      }
    },
    {
      "type": "Feature",
      "properties": {
        "norad_id": 30936,
        "name": "FENGYUN 1C DEB",
        "group": "fengyun-1c-debris",
        "lat": -43.10716822574166,
        "lon": -159.28789536215007,
        "alt_km": 792.5785140404123,
        "timestamp": "2025-12-24T07:45:06.479358+00:00",
        "meta_object_name": "FENGYUN 1C DEB",
        "meta_object_id": "1999-025BAA",
        "meta_epoch": "2025-12-23T21:25:10.460352",
        "meta_mean_motion": 14.23397522,
        "meta_eccentricity": 0.0046083,
        "meta_inclination": 98.5807,
        "meta_ra_of_asc_node": 28.417,
        "meta_arg_of_pericenter": 257.6614,
        "meta_mean_anomaly": 281.4714,
        "meta_ephemeris_type": 0,
        "meta_classification_type": "U",
        "meta_norad_cat_id": 30936,
        "meta_element_set_no": 999,
        "meta_rev_at_epoch": 97291,
        "meta_bstar": 0.00045721185,
        "meta_mean_motion_dot": 1.006e-05,
        "meta_mean_motion_ddot": 0,
        "tle_line1": "1 30936U 99025BAA 25357.89248218  .00001006  00000+0  45721-3 0  9998",
        "tle_line2": "2 30936  98.5807  28.4170 0046083 257.6614 281.4714 14.23397522972917"
      },
      "geometry": {
        "type": "Point",
        "coordinates": [
          -159.28789536215007,
          -43.10716822574166
        ]
      }
    },
    {
      "type": "Feature",
      "properties": {
        "norad_id": 30937,
        "name": "FENGYUN 1C DEB",
        "group": "fengyun-1c-debris",
        "lat": -22.89359427808873,
        "lon": 54.39727463929285,
        "alt_km": 875.2556334779983,
        "timestamp": "2025-12-24T07:45:06.479368+00:00",
        "meta_object_name": "FENGYUN 1C DEB",
        "meta_object_id": "1999-025BAB",
        "meta_epoch": "2025-12-23T02:44:58.507584",
        "meta_mean_motion": 13.95588532,
        "meta_eccentricity": 0.00753595,
        "meta_inclination": 99.0875,
        "meta_ra_of_asc_node": 49.3306,
        "meta_arg_of_pericenter": 25.0121,
        "meta_mean_anomaly": 4.5351,
        "meta_ephemeris_type": 0,
        "meta_classification_type": "U",
        "meta_norad_cat_id": 30937,
        "meta_element_set_no": 999,
        "meta_rev_at_epoch": 95861,
        "meta_bstar": -1.2794347e-05,
        "meta_mean_motion_dot": -6.2e-07,
        "meta_mean_motion_ddot": 0,
        "tle_line1": "1 30937U 99025BAB 25357.11456606 -.00000062  00000+0 -12794-4 0  9994",
        "tle_line2": "2 30937  99.0875  49.3306 0075359  25.0121   4.5351 13.95588532958613"
      },
      "geometry": {
        "type": "Point",
        "coordinates": [
          54.39727463929285,
          -22.89359427808873
        ]
      }
    },
    {
      "type": "Feature",
      "properties": {
        "norad_id": 30938,
        "name": "FENGYUN 1C DEB",
        "group": "fengyun-1c-debris",
        "lat": -10.951855336106702,
        "lon": 13.150256048997182,
        "alt_km": 804.7069191451537,
        "timestamp": "2025-12-24T07:45:06.479379+00:00",
        "meta_object_name": "FENGYUN 1C DEB",
        "meta_object_id": "1999-025BAC",
        "meta_epoch": "2025-12-23T23:37:06.615840",
        "meta_mean_motion": 14.19835507,
        "meta_eccentricity": 0.00454166,
        "meta_inclination": 98.5904,
        "meta_ra_of_asc_node": 11.1452,
        "meta_arg_of_pericenter": 310.8507,
        "meta_mean_anomaly": 106.6494,
        "meta_ephemeris_type": 0,
        "meta_classification_type": "U",
        "meta_norad_cat_id": 30938,
        "meta_element_set_no": 999,
        "meta_rev_at_epoch": 97279,
        "meta_bstar": 0.00032095678,
        "meta_mean_motion_dot": 6.44e-06,
        "meta_mean_motion_ddot": 0,
        "tle_line1": "1 30938U 99025BAC 25357.98410435  .00000644  00000+0  32096-3 0  9990",
        "tle_line2": "2 30938  98.5904  11.1452 0045416 310.8507 106.6494 14.19835507972795"
      },
      "geometry": {
        "type": "Point",
        "coordinates": [
          13.150256048997182,
          -10.951855336106702
        ]
      }
    }
  ]
}